ONEWEB-0526             
1 54144U 22138AH  26062.73343189  .00000048  00000+0  87511-4 0  9995
2 54144  87.9248 325.9646 0001774  82.8877 277.2458 13.19723998162895
ONEWEB-0529             
1 54145U 22138AJ  26062.73660081  .00000112  00000+0  24678-3 0  9995
2 54145  87.9238 325.9824 0001689  86.8881 273.2445 13.19726307162919
ONEWEB-0531             
1 54146U 22138AK  26062.70328188  .00000003  00000+0 -25618-4 0  9998
2 54146  87.9184 295.4966 0002346  68.3551 291.7832 13.20772663165385
ONEWEB-0535             
1 54147U 22138AL  26062.76977150  .00000041  00000+0  69787-4 0  9990
2 54147  87.9248 325.9518 0001766  67.9476 292.1844 13.19725811162932
ONEWEB-0536             
1 54148U 22138AM  26062.69065736  .00000034  00000+0  51178-4 0  9998
2 54148  87.9171 295.5347 0002486  69.3218 290.8182 13.20772527165379
ONEWEB-0527             
1 54642U 22166A   26062.57425380  .00000080  00000+0  16254-3 0  9996
2 54642  87.9164 265.0601 0001678  91.1077 269.0249 13.21825267157580
ONEWEB-0528             
1 54643U 22166B   26062.50513219  .00000070  00000+0  13752-3 0  9998
2 54643  87.9166 265.0776 0001634  92.6253 267.5068 13.21826637157584
ONEWEB-0539             
1 54644U 22166C   26062.61868210  .00000009  00000+0 -86801-5 0  9995
2 54644  87.9169 265.0204 0001397  92.3072 267.8222 13.21825622157595
ONEWEB-0540             
1 54645U 22166D   26062.62538891  .00000032  00000+0  46771-4 0  9992
2 54645  87.9165 265.0556 0001479  87.1444 272.9859 13.21827141157588
ONEWEB-0542             
1 54646U 22166E   26062.62853919 -.00000053  00000+0 -16041-3 0  9995
2 54646  87.9173 265.0143 0001236  86.9035 273.2241 13.21828681157594
ONEWEB-0545             
1 54647U 22166F   26062.51830020  .00000050  00000+0  88823-4 0  9995
2 54647  87.9166 265.0571 0001143  79.3647 280.7616 13.21825722157541
ONEWEB-0580             
1 54648U 22166G   26062.56767190  .00000037  00000+0  58430-4 0  9994
2 54648  87.9165 265.0464 0001359  78.9473 281.1814 13.21825247157595
ONEWEB-0582             
1 54649U 22166H   26062.61045417  .00000043  00000+0  72274-4 0  9991
2 54649  87.9168 265.0309 0001188  81.0174 279.1094 13.21825263157573
ONEWEB-0583             
1 54650U 22166J   26062.62196590  .00000014  00000+0  34800-5 0  9995
2 54650  87.9166 265.0522 0001474  91.5428 268.5875 13.21826115157583
ONEWEB-0584             
1 54651U 22166K   26062.56602580  .00000076  00000+0  15349-3 0  9993
2 54651  87.9165 265.0507 0001379  77.5825 282.5463 13.21825608157568
ONEWEB-0585             
1 54652U 22166L   26062.51499314 -.00000205  00000+0 -52791-3 0  9996
2 54652  87.9165 265.0454 0001760  90.7979 269.3357 13.21825476157569
ONEWEB-0586             
1 54653U 22166M   26062.60387219  .00000040  00000+0  64738-4 0  9997
2 54653  87.9167 265.0531 0001388  89.7542 270.3751 13.21824258157576
